STARLINK-31630          
1 59271U 24050T   26068.56880718 -.00002063  00000+0 -57526-4 0  9991
2 59271  53.1600 168.5079 0001409  92.3163 267.7999 15.30200807110710
STARLINK-32678          
1 62309U 24239J   26068.63581985  .00019883  00000+0  68165-3 0  9994
2 62309  53.1608 181.5302 0000808 116.9668 243.1415 15.30198558 69558
